JCAT , SatcatLaunch_Tag Piece     , Type     , Name                        , PLName                      , LDate      , Parent      , SDate              , Primary, DDate              , Status Dest   , Owner       , State , Manufacturer, Bus              , Motor       , Mass     , DryMass   , TotMass  , Length, Diamete, Span   , Shape                    , ODate      , Perigee, Apogee, Inc   , OpOrbitOQU AltNames, STATUS, OBJECT_NAME             , OBJECT_ID , EPOCH                     , MEAN_MOTION, ECCENTRICITY, INCLINATION, RA_OF_ASC_NODE, ARG_OF_PERICENTER, MEAN_ANOMALY, EPHEMERIS_TYPE, CLASSIFICATION_TYPE, NORAD_CAT_ID, ELEMENT_SET_NO, REV_AT_EPOCH, BSTAR         , MEAN_MOTION_DOT, MEAN_MOTION_DDOT, LAST_UPDATED       , DATA_SOURCE               , TLE_LINE1                                                            , TLE_LINE2                                                            , N2YO_SAT_NAME              , TLE_FETCHED
27057, 27057 2001-058   2001-058C , P        , Kosmos-2386                 , Strela-3 No. 145L (845)     , 2001 Dec 28, S27061      , 2001 Dec 28 0408   , Earth  , -                  , O      -      , KVR         , RU    , NPOPMR      , Strela-3         , -           , 225      , 225       , 225      , 1.6   , 0.8    , 7.0  ? , Cyl + Ant                , 2002 Jan  4, 1404   , 1417  , 82.54 , LEO/I  -   Strela-3, ACTIVE, COSMOS 2386             , 2001-058C , 2025-10-03T13:04:55.870176, 12.6160912 , 7.502e-05   ,     82.5493,        18.4737,          106.1922,     253.9251,            0.0, U                  ,      27057.0,          999.0,       9414.0, 5.2537306e-05 , 2e-07          , 0.0             , 2025-10-04 23:19:22, planet4589.org + Celestrak, 1 27057U 01058C   25276.54509109  .00000020  00000-0  52537-4 0  9998, 2 27057  82.5493  18.4737 0000750 106.1922 253.9251 12.61609120 94140, COSMOS 2386                , YES
27168, 27168 2002-001   2002-001A , P ------c, Milstar 5                   , Milstar DFS-5               , 2002 Jan 16, S27169      , 2002 Jan 16 0705   , Earth  , -                  , O      -      , AFSMC       , US    , LMMS        , Milstar          , AOCS        , 4500     , 4200    ? , 4500     , 15.5  , 5.0  ? , 35.0   , Truss + Ant              , 2006 Jan 18, 35758  , 35815 , 1.70  , GEO/S  -   USA 164:, ACTIVE, USA 164 (MILSTAR-2 3)   , 2002-001A , 2025-10-03T12:01:33.971232,  1.00277317, 0.00965668  ,     10.871 ,        23.3837,            5.9615,     182.5569,            0.0, U                  ,      27168.0,          999.0,       3038.0, 0.0           , 1.06e-06       , 0.0             , 2025-10-04 23:19:22, planet4589.org + Celestrak, 1 27168U 02001A   25277.50018064  .00000106  00000-0  00000+0 0  9990, 2 27168  10.8724  23.3785 0096483   5.9209 183.2796  1.00277580 30392, USA 164                    , YES
27380, 27380 2002-007   2002-007A , P      O , INTELSAT 904                , INTELSAT 904                , 2002 Feb 23, S27381      , 2002 Feb 23 0720   , Earth  , -                  , O      -      , INTELD      , US    , LOR         , FS-1300HL        , R-4D-11-164 , 4680     , 2350      , 4680     , 5.6   , 2.8    , 31.0   , Box + 2 Pan + 2 Dish     , 2003 Feb  7, 35758  , 35813 , 0.01  , GEO/S  -           , ACTIVE, INTELSAT 904 (IS-904)   , 2002-007A , 2025-10-03T06:39:57.311424,  1.00271312, 0.00027338  ,      6.272 ,        72.2501,           86.8378,     285.6539,            0.0, U                  ,      27380.0,          999.0,       4919.0, 0.0           , -1.98e-06      , 0.0             , 2025-10-04 23:19:22, planet4589.org + Celestrak, 1 27380U 02007A   25277.27683007 -.00000198  00000-0  00000+0 0  9993, 2 27380   6.2749  72.2391 0003946 106.6904 266.4633  1.00266031 49206, INTELSAT 904               , YES
27424, 27424 2002-022   2002-022A , P        , Aqua                        , EOS PM-1                    , 2002 May  4, S27425      , 2002 May  4 1054   , Earth  , -                  , O      -      , GSFC        , US    , TRW         , T-330            , AOCS        , 3078     , 2976      , 3078     , 6.7   , 2.5    , 17.0   , Box + Pan                , 2002 May 14, 673    , 686   , 98.18 , LEO/S  -   NAIF154 , ACTIVE, AQUA                    , 2002-022A , 2025-10-03T14:12:11.263392, 14.61557436, 0.0002062   ,     98.3908,       236.3864,           75.341 ,     345.9696,            0.0, U                  ,      27424.0,          999.0,      24578.0, 0.00057287201 , 2.796e-05      , 0.0             , 2025-10-04 23:19:22, planet4589.org + Celestrak, 1 27424U 02022A   25277.49113066  .00002328  00000-0  47868-3 0  9999, 2 27424  98.3910 237.2989 0002043  74.2480  36.2128 14.61561035245910, AQUA                       , YES
27426, 27426 2002-023   2002-023A , P        , DirecTV 5                   , DirecTV-5                   , 2002 May  7, S27429      , 2002 May  7 2332   , Earth  , 2017 Jun 12        , N      -      , DTV         , US    , LOR         , FS-1300          , R-4D-11-164 , 3640     , 2000    ? , 3640     , 5.6  ?, 2.8  ? , 31.0  ?, Box + 2 Pan              , 2003 Jul  5, 35775  , 35797 , 0.01  , GEO/S  -           , ACTIVE, DIRECTV 5 (TEMPO 1)     , 2002-023A , 2025-10-03T13:07:27.535872,  1.00271803, 0.00034452  ,      4.2159,        78.5059,          125.4494,     255.3173,            0.0, U                  ,      27426.0,          999.0,       8555.0, 0.0           , -5.3e-07       , 0.0             , 2025-10-04 23:19:22, planet4589.org + Celestrak, 1 27426U 02023A   25277.46745229 -.00000052  00000-0  00000+0 0  9997, 2 27426   4.2183  78.4935 0003505 127.8376 225.2671  1.00271711 85552, DIRECTV 5 (TEMPO 1)        , YES
27438, 27438 2002-027   2002-027A , P      O , INTELSAT 905                , INTELSAT 905                , 2002 Jun  5, S27439      , 2002 Jun  5 0704   , Earth  , -                  , O      -      , INTELD      , US    , LOR         , FS-1300HL        , R-4D-15-260 , 4723     , 1984      , 4723     , 5.6   , 2.8    , 31.0   , Box + 2 Pan + 2 Dish     , 2003 Jun 28, 35778  , 35794 , 0.03  , GEO/S  -           , ACTIVE, INTELSAT 905 (IS-905)   , 2002-027A , 2025-10-03T12:59:43.277568,  1.00271335, 0.00024815  ,      6.1025,        72.8772,          106.9125,     250.4605,            0.0, U                  ,      27438.0,          999.0,       4878.0, 0.0           , 1e-06          , 0.0             , 2025-10-04 23:19:22, planet4589.org + Celestrak, 1 27438U 02027A   25277.51871765  .00000101  00000-0  00000+0 0  9999, 2 27438   6.1051  72.8647 0002483 110.1504 240.0053  1.00271565 48791, INTELSAT 905               , YES
27445, 27445 2002-030   2002-030A , P      O , Galaxy 3C                   , Galaxy III-C                , 2002 Jun 15, S27446      , 2002 Jun 15 2341   , Earth  , 2006 Jul  3        , N      -      , PAN         , US    , BOES        , BSS-702HP        , R-4D-11-300 , 4850     , 2000    ? , 4850     , 7.0  ?, 3.3    , 47.8   , Box + 2 Pan              , 2003 Jun 22, 35785  , 35788 , 0.05  , GEO/S  -           , ACTIVE, GALAXY 3C (G-3C)        , 2002-030A , 2025-10-03T13:11:49.618176,  1.00271386, 0.00019701  ,      3.0781,        81.2359,           62.0463,     332.3594,            0.0, U                  ,      27445.0,          999.0,       4392.0, 0.0           , -1.49e-06      , 0.0             , 2025-10-04 23:19:22, planet4589.org + Celestrak, 1 27445U 02030A   25276.54987984 -.00000149  00000-0  00000-0 0  9998, 2 27445   3.0781  81.2359 0001970  62.0463 332.3594  1.00271386 43924, GALAXY 3C                  , YES
27464, 27464 2002-036   2002-036A , P        , Kosmos-2390                 , Strela-3 No. 137L (437)     , 2002 Jul  8, S27466      , 2002 Jul  8 0730?  , Earth  , -                  , O      -      , KVR         , RU    , NPOPMR      , Strela-3         , -           , 225      , 225       , 225      , 1.6   , 0.8    , 7.0  ? , Cyl + Ant                , 2002 Jul 17, 1468   , 1507  , 82.48 , LEO/I  -   Strela-3, ACTIVE, COSMOS 2390             , 2002-036A , 2025-10-03T14:43:31.299744, 12.44616162, 0.00261663  ,     82.4836,       145.403 ,           98.8593,     261.5452,            0.0, U                  ,      27464.0,          999.0,       5575.0, 0.00025603405 , 4.6e-07        , 0.0             , 2025-10-04 23:19:22, planet4589.org + Celestrak, 1 27464U 02036A   25277.57818068  .00000052  00000-0  29194-3 0  9995, 2 27464  82.4834 144.8000 0026181  96.8270 263.5791 12.44616214 55870, COSMOS 2390                , YES
27465, 27465 2002-036   2002-036B , P        , Kosmos-2391                 , Strela-3 No. 150L (450)     , 2002 Jul  8, S27466      , 2002 Jul  8 0730?  , Earth  , -                  , O      -      , KVR         , RU    , NPOPMR      , Strela-3         , -           , 225      , 225       , 225      , 1.6   , 0.8    , 7.0  ? , Cyl + Ant                , 2002 Jul 18, 1468   , 1509  , 82.49 , LEO/I  -   Strela-3, ACTIVE, COSMOS 2391             , 2002-036B , 2025-10-03T14:47:25.884384, 12.44938419, 0.0027084   ,     82.4827,       142.0403,           93.5141,     266.9038,            0.0, U                  ,      27465.0,          999.0,       5592.0, 0.00016287593 , 3.3e-07        , 0.0             , 2025-10-04 23:19:22, planet4589.org + Celestrak, 1 27465U 02036B   25277.58064601  .00000041  00000-0  21500-3 0  9994, 2 27465  82.4825 141.4370 0027093  91.4841 268.9343 12.44938454 56047, COSMOS 2391                , YES
